NORAD_CAT_ID,OBJECT_NAME,OBJECT_TYPE,EPOCH,MEAN_MOTION,ECCENTRICITY,INCLINATION,RA_OF_ASC_NODE,ARG_OF_PERICENTER,MEAN_ANOMALY,BSTAR,MEAN_MOTION_DOT,MEAN_MOTION_DDOT,TLE_LINE0,TLE_LINE1,TLE_LINE2,SEMIMAJOR_AXIS,PERIOD,APOGEE,PERIGEE,DECAYED
53871.0,STARLINK-4740,PAYLOAD,2023-12-05 02:42:12,15.0882906,0.0001626,53.2193,9.8972,84.6088,275.509,0.00030214,4.522e-05,0.0,0 STARLINK-4740,1 53871U 22114BF  23339.11265005  .00004522  00000-0  30214-3 0  9990,2 53871  53.2193   9.8972 0001626  84.6088 275.5090 15.08829060 68228,6917.914,95.438,540.904,538.654,0.0
53871.0,STARLINK-4740,PAYLOAD,2023-12-05 09:03:45,15.08833562,0.0001544,53.2187,8.7076,80.1856,279.931,0.00031656,4.753e-05,0.0,0 STARLINK-4740,1 53871U 22114BF  23339.37760910  .00004753  00000-0  31656-3 0  9990,2 53871  53.2187   8.7076 0001544  80.1856 279.9310 15.08833562 68806,6917.9,95.438,540.833,538.697,0.0
53871.0,STARLINK-4740,PAYLOAD,2023-12-06 07:19:09,15.08849664,0.0001798,53.2194,4.5468,80.5254,279.5941,-6.0522e-05,-1.251e-05,0.0,0 STARLINK-4740,1 53871U 22114BF  23340.30497158 -.00001251  00000-0 -60522-4 0  9993,2 53871  53.2194   4.5468 0001798  80.5254 279.5941 15.08849664 68402,6917.851,95.437,540.96,538.472,0.0
53871.0,STARLINK-4740,PAYLOAD,2023-12-07 05:34:34,15.08837681,0.0001892,53.2201,0.3864,84.6984,275.4224,-7.5906e-05,-1.496e-05,0.0,0 STARLINK-4740,1 53871U 22114BF  23341.23233832 -.00001496  00000-0 -75906-4 0  9996,2 53871  53.2201   0.3864 0001892  84.6984 275.4224 15.08837681 68545,6917.887,95.438,541.061,538.444,0.0
53871.0,STARLINK-4740,PAYLOAD,2023-12-07 08:45:20,15.08838663,0.0001851,53.2188,359.7912,77.3618,282.7581,-5.9164e-05,-1.23e-05,0.0,0 STARLINK-4740,1 53871U 22114BF  23341.36481759 -.00001230  00000-0 -59164-4 0  9997,2 53871  53.2188 359.7912 0001851  77.3618 282.7581 15.08838663 69103,6917.884,95.438,541.03,538.469,0.0
53871.0,STARLINK-4740,PAYLOAD,2023-12-08 07:00:43,15.08839338,0.000183,53.2181,355.629,77.9148,282.2049,3.5625e-05,2.79e-06,0.0,0 STARLINK-4740,1 53871U 22114BF  23342.29217505  .00000279  00000-0  35625-4 0  9992,2 53871  53.2181 355.6290 0001830  77.9148 282.2049 15.08839338 68700,6917.882,95.438,541.013,538.481,0.0
53871.0,STARLINK-4740,PAYLOAD,2023-12-09 10:02:16,15.08844157,0.0001802,53.2182,350.5733,80.5405,279.579,9.9822e-05,1.301e-05,0.0,0 STARLINK-4740,1 53871U 22114BF  23343.41825007  .00001301  00000-0  99822-4 0  9995,2 53871  53.2182 350.5733 0001802  80.5405 279.5790 15.08844157 68877,6917.868,95.437,540.979,538.486,0.0
53871.0,STARLINK-4740,PAYLOAD,2023-12-10 00:20:45,15.088375,0.0001715,53.2178,347.896,100.0826,260.036,-2.4658e-05,-6.8e-06,0.0,0 STARLINK-4740,1 53871U 22114BF  23344.01441724 -.00000680  00000-0 -24658-4 0  9998,2 53871  53.2178 347.8960 0001715 100.0826 260.0360 15.08837500 68963,6917.888,95.438,540.939,538.567,0.0
53871.0,STARLINK-4740,PAYLOAD,2023-12-11 04:57:41,15.08843948,0.0001891,53.219,342.5423,108.6427,251.4771,3.2166e-06,-2.37e-06,0.0,0 STARLINK-4740,1 53871U 22114BF  23345.20673151 -.00000237  00000-0  32166-5 0  9992,2 53871  53.2190 342.5423 0001891 108.6427 251.4771 15.08843948 69143,6917.868,95.437,541.041,538.425,0.0
53871.0,STARLINK-4740,PAYLOAD,2023-12-11 06:33:04,15.08845548,0.0001721,53.2185,342.2449,101.2177,258.9009,1.131e-05,-1.08e-06,0.0,0 STARLINK-4740,1 53871U 22114BF  23345.27297069 -.00000108  00000-0  11310-4 0  9993,2 53871  53.2185 342.2449 0001721 101.2177 258.9009 15.08845548 69699,6917.863,95.437,540.919,538.538,0.0
53871.0,STARLINK-4740,PAYLOAD,2023-12-12 03:13:05,15.0883823,0.0001828,53.2193,338.3813,101.4393,258.6805,2.0806e-05,4.3e-07,0.0,0 STARLINK-4740,1 53871U 22114BF  23346.13409474  .00000043  00000-0  20806-4 0  9991,2 53871  53.2193 338.3813 0001828 101.4393 258.6805 15.08838230 69285,6917.886,95.438,541.015,538.486,0.0
53871.0,STARLINK-4740,PAYLOAD,2023-12-12 04:48:28,15.0883845,0.0001808,53.2191,338.084,99.574,260.5456,2.4233e-05,9.8e-07,0.0,0 STARLINK-4740,1 53871U 22114BF  23346.20033494  .00000098  00000-0  24233-4 0  9992,2 53871  53.2191 338.0840 0001808  99.5740 260.5456 15.08838450 69830,6917.885,95.438,541.001,538.499,0.0
53871.0,STARLINK-4740,PAYLOAD,2023-12-12 22:17:43,15.08836947,0.0001667,53.2181,334.8123,90.8757,269.2426,-2.1138e-05,-6.24e-06,0.0,0 STARLINK-4740,1 53871U 22114BF  23346.92897931 -.00000624  00000-0 -21138-4 0  9993,2 53871  53.2181 334.8123 0001667  90.8757 269.2426 15.08836947 69946,6917.89,95.438,540.908,538.602,0.0
53871.0,STARLINK-4740,PAYLOAD,2023-12-13 04:39:16,15.08838528,0.0001718,53.2186,333.6246,103.1399,256.9785,-1.011e-05,-4.49e-06,0.0,0 STARLINK-4740,1 53871U 22114BF  23347.19393750 -.00000449  00000-0 -10110-4 0  9996,2 53871  53.2186 333.6246 0001718 103.1399 256.9785 15.08838528 69444,6917.885,95.438,540.938,538.561,0.0
53871.0,STARLINK-4740,PAYLOAD,2023-12-14 04:30:03,15.08832865,0.000166,53.2184,329.1666,102.1502,257.9677,1.14e-05,-1.07e-06,0.0,0 STARLINK-4740,1 53871U 22114BF  23348.18754316 -.00000107  00000-0  11400-4 0  9998,2 53871  53.2184 329.1666 0001660 102.1502 257.9677 15.08832865 70136,6917.902,95.438,540.916,538.619,0.0
53871.0,STARLINK-4740,PAYLOAD,2023-12-15 04:20:50,15.08841278,0.0001565,53.2181,324.703,94.4824,265.6347,6.7645e-05,7.89e-06,0.0,0 STARLINK-4740,1 53871U 22114BF  23349.18113839  .00000789  00000-0  67645-4 0  9995,2 53871  53.2181 324.7030 0001565  94.4824 265.6347 15.08841278 69746,6917.876,95.437,540.824,538.659,0.0
53871.0,STARLINK-4740,PAYLOAD,2023-12-15 05:56:13,15.08843763,0.0001573,53.2182,324.4062,86.3905,273.7267,8.5192e-05,1.068e-05,0.0,0 STARLINK-4740,1 53871U 22114BF  23349.24737679  .00001068  00000-0  85192-4 0  9994,2 53871  53.2182 324.4062 0001573  86.3905 273.7267 15.08843763 70292,6917.869,95.437,540.822,538.646,0.0
53871.0,STARLINK-4740,PAYLOAD,2023-12-16 04:11:38,15.08835373,0.0001623,53.2182,320.2453,78.9394,281.1781,1.7512e-05,-9e-08,0.0,0 STARLINK-4740,1 53871U 22114BF  23350.17474671 -.00000009  00000-0  17512-4 0  9994,2 53871  53.2182 320.2453 0001623  78.9394 281.1781 15.08835373 69891,6917.895,95.438,540.882,538.637,0.0
53871.0,STARLINK-4740,PAYLOAD,2023-12-16 05:47:01,15.08826909,0.0001773,53.2186,319.9482,70.015,290.1032,0.00016061,2.268e-05,0.0,0 STARLINK-4740,1 53871U 22114BF  23350.24098778  .00002268  00000-0  16061-3 0  9997,2 53871  53.2186 319.9482 0001773  70.0150 290.1032 15.08826909 70448,6917.92,95.438,541.012,538.559,0.0
53871.0,STARLINK-4740,PAYLOAD,2023-12-17 05:37:47,15.0884438,0.0001715,53.2184,315.4842,75.3421,284.7761,2.0466e-05,3.8e-07,0.0,0 STARLINK-4740,1 53871U 22114BF  23351.23458309  .00000038  00000-0  20466-4 0  9995,2 53871  53.2184 315.4842 0001715  75.3421 284.7761 15.08844380 70050,6917.867,95.437,540.918,538.546,0.0
53871.0,STARLINK-4740,PAYLOAD,2023-12-18 03:53:10,15.08855502,0.0001789,53.2184,311.3193,71.4447,288.6739,0.00015636,2.202e-05,0.0,0 STARLINK-4740,1 53871U 22114BF  23352.16192858  .00002202  00000-0  15636-3 0  9999,2 53871  53.2184 311.3193 0001789  71.4447 288.6739 15.08855502 70191,6917.833,95.437,540.936,538.46,0.0
53871.0,STARLINK-4740,PAYLOAD,2023-12-19 03:43:59,15.08835027,0.0001516,53.2189,306.8576,98.7161,261.4003,-4.5768e-05,-1.016e-05,0.0,0 STARLINK-4740,1 53871U 22114BF  23353.15554719 -.00001016  00000-0 -45768-4 0  9991,2 53871  53.2189 306.8576 0001516  98.7161 261.4003 15.08835027 70343,6917.896,95.438,540.809,538.712,0.0
53871.0,STARLINK-4740,PAYLOAD,2023-12-20 01:59:22,15.08846942,0.0001382,53.2184,302.6978,88.5071,271.6079,-0.00011759,-2.159e-05,0.0,0 STARLINK-4740,1 53871U 22114BF  23354.08290428 -.00002159  00000-0 -11759-3 0  9999,2 53871  53.2184 302.6978 0001382  88.5071 271.6079 15.08846942 70485,6917.859,95.437,540.68,538.768,0.0
53871.0,STARLINK-4740,PAYLOAD,2023-12-21 03:25:31,15.08854628,0.0001255,53.2185,297.9402,108.0808,252.032,0.00025039,3.701e-05,0.0,0 STARLINK-4740,1 53871U 22114BF  23355.14272877  .00003701  00000-0  25039-3 0  9993,2 53871  53.2185 297.9402 0001255 108.0808 252.0320 15.08854628 70649,6917.836,95.437,540.569,538.832,0.0
53871.0,STARLINK-4740,PAYLOAD,2023-12-22 01:40:57,15.08834065,0.0001357,53.2185,293.7757,83.303,276.8117,-1.7898e-05,-5.73e-06,0.0,0 STARLINK-4740,1 53871U 22114BF  23356.07011323 -.00000573  00000-0 -17898-4 0  9994,2 53871  53.2185 293.7757 0001357  83.3030 276.8117 15.08834065 70787,6917.899,95.438,540.702,538.825,0.0
53871.0,STARLINK-4740,PAYLOAD,2023-12-23 03:07:07,15.08851816,0.0001306,53.2177,289.0206,81.3622,278.7518,3.1311e-06,-2.38e-06,0.0,0 STARLINK-4740,1 53871U 22114BF  23357.12994495 -.00000238  00000-0  31311-5 0  9995,2 53871  53.2177 289.0206 0001306  81.3622 278.7518 15.08851816 70941,6917.844,95.437,540.613,538.806,0.0
53871.0,STARLINK-4740,PAYLOAD,2023-12-23 04:42:29,15.08858079,0.0001551,53.218,288.72,112.8179,247.2977,5.1293e-05,5.29e-06,0.0,0 STARLINK-4740,1 53871U 22114BF  23357.19617823  .00000529  00000-0  51293-4 0  9991,2 53871  53.2180 288.7200 0001551 112.8179 247.2977 15.08858079 70953,6917.825,95.436,540.763,538.617,0.0
53871.0,STARLINK-4740,PAYLOAD,2023-12-24 02:57:54,15.08850891,0.0001489,53.2177,284.5581,90.5989,269.5174,0.00030986,4.648e-05,0.0,0 STARLINK-4740,1 53871U 22114BF  23358.12354262  .00004648  00000-0  30986-3 0  9991,2 53871  53.2177 284.5581 0001489  90.5989 269.5174 15.08850891 71092,6917.847,95.437,540.742,538.682,0.0
53871.0,STARLINK-4740,PAYLOAD,2023-12-24 18:51:46,15.08840126,0.0001537,53.2182,281.5886,82.3068,277.8099,7.8226e-05,9.57e-06,0.0,0 STARLINK-4740,1 53871U 22114BF  23358.78595143  .00000957  00000-0  78226-4 0  9997,2 53871  53.2182 281.5886 0001537  82.3068 277.8099 15.08840126 71193,6917.88,95.438,540.808,538.682,0.0
53871.0,STARLINK-4740,PAYLOAD,2023-12-25 04:24:04,15.08848688,0.000151,53.2172,279.7983,118.2144,241.9001,8.7066e-05,1.098e-05,0.0,0 STARLINK-4740,1 53871U 22114BF  23359.18338612  .00001098  00000-0  87066-4 0  9997,2 53871  53.2172 279.7983 0001510 118.2144 241.9001 15.08848688 71796,6917.854,95.437,540.763,538.674,0.0
